0 COSMOS 397 DEB
1 05098U 71015X   13281.59283806  .00001253  00000-0  47921-3 0  3432
2 05098 065.8393 343.4774 0775106 332.6033 090.9259 13.32702582 30848
0 COSMOS 397 DEB
1 05098U 71015X   13283.52989627  .00000997  00000-0  35566-3 0  3448
2 05098 065.8422 338.9859 0774037 331.6794 024.4546 13.32707593 31107
0 COSMOS 397 DEB
1 05098U 71015X   13287.13791366  .00002044  00000-0  75866-3 0  3453
2 05098 065.8386 330.5887 0775476 330.0467 054.8641 13.32721022 31581
0 COSMOS 397 DEB
1 05098U 71015X   13289.62467719  .00002619  00000-0  96181-3 0  3463
2 05098 065.8380 324.8078 0775575 328.9018 105.8897 13.32735015 31915
0 COSMOS 397 DEB
1 05098U 71015X   13292.17117348  .00002950  00000-0  10786-2 0  3472
2 05098 065.8385 318.8907 0775596 327.7188 083.6371 13.32746162 32255
0 COSMOS 397 DEB
1 05098U 71015X   13294.28014631  .00004245  00000-0  15354-2 0  3483
2 05098 065.8389 313.9877 0775726 326.7504 122.2971 13.32757227 32538
